NORAD_CAT_ID,OBJECT_NAME,OBJECT_TYPE,EPOCH,MEAN_MOTION,ECCENTRICITY,INCLINATION,RA_OF_ASC_NODE,ARG_OF_PERICENTER,MEAN_ANOMALY,BSTAR,MEAN_MOTION_DOT,MEAN_MOTION_DDOT,TLE_LINE0,TLE_LINE1,TLE_LINE2,SEMIMAJOR_AXIS,PERIOD,APOGEE,PERIGEE,DECAYED
52645.0,STARLINK-3973,PAYLOAD,2022-11-19 06:48:03,15.08843839,0.0002909,53.2202,274.8926,30.9899,329.1264,9.366e-05,1.203e-05,0.0,0 STARLINK-3973,1 52645U 22052AZ  22323.28337007  .00001203  00000-0  93660-4 0  9999,2 52645  53.2202 274.8926 0002909  30.9899 329.1264 15.08843839 29001,6917.869000000002,95.437,541.746,537.721,0.0
52645.0,STARLINK-3973,PAYLOAD,2022-11-20 03:28:03,15.08845455,0.0002913,53.2193,271.0264,29.7688,330.347,9.5405e-05,1.23e-05,0.0,0 STARLINK-3973,1 52645U 22052AZ  22324.14448532  .00001230  00000-0  95405-4 0  9990,2 52645  53.2193 271.0264 0002913  29.7688 330.3470 15.08845455 29516,6917.864000000001,95.437,541.744,537.714,0.0
52645.0,STARLINK-3973,PAYLOAD,2022-11-20 13:00:22,15.08841264,0.000295,53.2192,269.2426,29.4749,330.641,3.5263000000000004e-05,2.73e-06,0.0,0 STARLINK-3973,1 52645U 22052AZ  22324.54192965  .00000273  00000-0  35263-4 0  9992,2 52645  53.2192 269.2426 0002950  29.4749 330.6410 15.08841264 29195,6917.877,95.437,541.7819999999998,537.701,0.0
52645.0,STARLINK-3973,PAYLOAD,2022-11-20 20:57:19,15.08829701,0.0002974,53.2193,267.7567,32.5754,327.5421,3.0284e-05,1.93e-06,0.0,0 STARLINK-3973,1 52645U 22052AZ  22324.87313664  .00000193  00000-0  30284-4 0  9998,2 52645  53.2193 267.7567 0002974  32.5754 327.5421 15.08829701 29247,6917.9119999999975,95.438,541.8340000000002,537.719,0.0
52645.0,STARLINK-3973,PAYLOAD,2022-11-21 03:18:52,15.08825119,0.0002894,53.2209,266.569,30.6145,329.5015,-7.406e-05,-1.467e-05,0.0,0 STARLINK-3973,1 52645U 22052AZ  22325.13810411 -.00001467  00000-0 -74060-4 0  9997,2 52645  53.2209 266.5690 0002894  30.6145 329.5015 15.08825119 29669,6917.926,95.438,541.793,537.789,0.0
52645.0,STARLINK-3973,PAYLOAD,2022-11-21 04:54:15,15.08829061,0.0002865,53.2192,266.269,27.0783,333.0358,-4.3939e-05,-9.88e-06,0.0,0 STARLINK-3973,1 52645U 22052AZ  22325.20434114 -.00000988  00000-0 -43939-4 0  9995,2 52645  53.2192 266.2690 0002865  27.0783 333.0358 15.08829061 29292,6917.9140000000025,95.438,541.761,537.797,0.0
52645.0,STARLINK-3973,PAYLOAD,2022-11-22 03:09:38,15.08845329,0.0002871,53.2194,262.1067,28.9089,331.2062,6.7788e-05,7.91e-06,0.0,0 STARLINK-3973,1 52645U 22052AZ  22326.13168997  .00000791  00000-0  67788-4 0  9999,2 52645  53.2194 262.1067 0002871  28.9089 331.2062 15.08845329 29818,6917.864000000001,95.437,541.715,537.743,0.0
52645.0,STARLINK-3973,PAYLOAD,2022-11-22 04:45:00,15.08848428,0.0002917,53.2195,261.809,28.757,331.3582,9.3021e-05,1.193e-05,0.0,0 STARLINK-3973,1 52645U 22052AZ  22326.19792757  .00001193  00000-0  93021-4 0  9998,2 52645  53.2195 261.8090 0002917  28.7570 331.3582 15.08848428 29445,6917.855,95.437,541.738,537.702,0.0
52645.0,STARLINK-3973,PAYLOAD,2022-11-23 01:25:02,15.08830737,0.0002998,53.2204,257.9447,31.7071,328.4101,8.775200000000001e-05,1.108e-05,0.0,0 STARLINK-3973,1 52645U 22052AZ  22327.05906074  .00001108  00000-0  87752-4 0  9993,2 52645  53.2204 257.9447 0002998  31.7071 328.4101 15.08830737 29951,6917.909000000002,95.438,541.8480000000002,537.7,0.0
52645.0,STARLINK-3973,PAYLOAD,2022-11-23 12:32:44,15.08832731,0.0002975,53.2199,255.8621,29.1328,330.9829,0.00010149,1.327e-05,0.0,0 STARLINK-3973,1 52645U 22052AZ  22327.52274239  .00001327  00000-0  10149-3 0  9994,2 52645  53.2199 255.8621 0002975  29.1328 330.9829 15.08832731 29643,6917.903,95.438,541.826,537.71,0.0
52645.0,STARLINK-3973,PAYLOAD,2022-11-24 04:26:36,15.08834234,0.0002961,53.2197,252.8887,29.5668,330.5491,-6.995e-05,-1.402e-05,0.0,0 STARLINK-3973,1 52645U 22052AZ  22328.18514836 -.00001402  00000-0 -69950-4 0  9998,2 52645  53.2197 252.8887 0002961  29.5668 330.5491 15.08834234 30124,6917.898,95.438,541.811,537.715,0.0
52645.0,STARLINK-3973,PAYLOAD,2022-11-24 12:23:32,15.08839494,0.0002989,53.2198,251.402,29.7654,330.3508,-5.3912e-05,-1.147e-05,0.0,0 STARLINK-3973,1 52645U 22052AZ  22328.51634533 -.00001147  00000-0 -53912-4 0  9999,2 52645  53.2198 251.4020 0002989  29.7654 330.3508 15.08839494 29797,6917.882,95.438,541.815,537.679,0.0
52645.0,STARLINK-3973,PAYLOAD,2022-11-25 01:06:37,15.08836818,0.0002878999999999,53.2198,249.0236,29.7923,330.3233,0.00010792,1.429e-05,0.0,0 STARLINK-3973,1 52645U 22052AZ  22329.04626300  .00001429  00000-0  10792-3 0  9990,2 52645  53.2198 249.0236 0002879  29.7923 330.3233 15.08836818 30251,6917.89,95.438,541.747,537.763,0.0
52645.0,STARLINK-3973,PAYLOAD,2022-11-25 12:14:18,15.08847859,0.0002957,53.22,246.9425,31.6457,328.4713,0.00018227,2.614e-05,0.0,0 STARLINK-3973,1 52645U 22052AZ  22329.50993487  .00002614  00000-0  18227-3 0  9992,2 52645  53.2200 246.9425 0002957  31.6457 328.4713 15.08847859 29944,6917.856,95.437,541.7669999999998,537.6759999999998,0.0
52645.0,STARLINK-3973,PAYLOAD,2022-11-25 18:35:50,15.08847135,0.0002942,53.2202,245.7529,32.6443,327.473,0.00019476,2.813e-05,0.0,0 STARLINK-3973,1 52645U 22052AZ  22329.77489435  .00002813  00000-0  19476-3 0  9992,2 52645  53.2202 245.7529 0002942  32.6443 327.4730 15.08847135 30361,6917.859,95.437,541.759,537.688,0.0
52645.0,STARLINK-3973,PAYLOAD,2022-11-26 04:08:09,15.0884656,0.000297,53.2202,243.9686,33.1206,326.9971,0.00019516,2.819e-05,0.0,0 STARLINK-3973,1 52645U 22052AZ  22330.17233488  .00002819  00000-0  19516-3 0  9994,2 52645  53.2202 243.9686 0002970  33.1206 326.9971 15.08846560 30046,6917.86,95.437,541.78,537.6709999999998,0.0
52645.0,STARLINK-3973,PAYLOAD,2022-11-26 18:26:37,15.08857371,0.0002983,53.2203,241.2922,34.7058,325.4129,0.00017955,2.572e-05,0.0,0 STARLINK-3973,1 52645U 22052AZ  22330.76848512  .00002572  00000-0  17955-3 0  9990,2 52645  53.2203 241.2922 0002983  34.7058 325.4129 15.08857371 30138,6917.8269999999975,95.436,541.756,537.629,0.0
52645.0,STARLINK-3973,PAYLOAD,2022-11-26 23:12:46,15.08854376,0.0002972,53.2205,240.4,35.1193,324.9995,0.00014934,2.09e-05,0.0,0 STARLINK-3973,1 52645U 22052AZ  22330.96720631  .00002090  00000-0  14934-3 0  9992,2 52645  53.2205 240.4000 0002972  35.1193 324.9995 15.08854376 30543,6917.8359999999975,95.437,541.757,537.645,0.0
52645.0,STARLINK-3973,PAYLOAD,2022-11-27 03:58:56,15.08845394,0.0003039,53.2196,239.5091,31.7978,328.3197,-3.3777e-06,-3.42e-06,0.0,0 STARLINK-3973,1 52645U 22052AZ  22331.16593447 -.00000342  00000-0 -33777-5 0  9996,2 52645  53.2196 239.5091 0003039  31.7978 328.3197 15.08845394 30574,6917.864000000001,95.437,541.831,537.627,0.0
52645.0,STARLINK-3973,PAYLOAD,2022-11-27 18:17:25,15.0883631,0.0003068,53.2197,236.8327,32.9469,327.1714,-6.9069e-05,-1.388e-05,0.0,0 STARLINK-3973,1 52645U 22052AZ  22331.76209913 -.00001388  00000-0 -69069-4 0  9997,2 52645  53.2197 236.8327 0003068  32.9469 327.1714 15.08836310 30667,6917.892,95.438,541.879,537.634,0.0
52645.0,STARLINK-3973,PAYLOAD,2022-11-28 03:49:44,15.08838975,0.0003053,53.2199,235.0483,33.5577,326.5608,-3.6373e-05,-8.68e-06,0.0,0 STARLINK-3973,1 52645U 22052AZ  22332.15953709 -.00000868  00000-0 -36373-4 0  9994,2 52645  53.2199 235.0483 0003053  33.5577 326.5608 15.08838975 30343,6917.884,95.438,541.861,537.636,0.0
52645.0,STARLINK-3973,PAYLOAD,2022-11-28 19:43:35,15.08835906,0.0003037,53.2197,232.0752,33.2327,326.8855,-5.8363e-05,-1.217e-05,0.0,0 STARLINK-3973,1 52645U 22052AZ  22332.82193873 -.00001217  00000-0 -58363-4 0  9998,2 52645  53.2197 232.0752 0003037  33.2327 326.8855 15.08835906 30820,6917.893,95.438,541.859,537.6569999999998,0.0
52645.0,STARLINK-3973,PAYLOAD,2022-11-29 10:02:03,15.08834667,0.0003146,53.2201,229.3995,33.8818,326.2374,6.012600000000003e-05,6.68e-06,0.0,0 STARLINK-3973,1 52645U 22052AZ  22333.41809832  .00000668  00000-0  60126-4 0  9990,2 52645  53.2201 229.3995 0003146  33.8818 326.2374 15.08834667 30537,6917.897,95.438,541.938,537.585,0.0
52645.0,STARLINK-3973,PAYLOAD,2022-11-30 01:55:55,15.08833452,0.0003021,53.2202,226.4266,34.3603,325.7584,7.3781e-05,8.86e-06,0.0,0 STARLINK-3973,1 52645U 22052AZ  22334.08050109  .00000886  00000-0  73781-4 0  9992,2 52645  53.2202 226.4266 0003021  34.3603 325.7584 15.08833452 31019,6917.9,95.438,541.855,537.6759999999998,0.0
52645.0,STARLINK-3973,PAYLOAD,2022-11-30 09:52:50,15.088394400000002,0.0003036,53.22,224.9399,34.4549,325.6639,8.6894e-05,1.095e-05,0.0,0 STARLINK-3973,1 52645U 22052AZ  22334.41169759  .00001095  00000-0  86894-4 0  9993,2 52645  53.2200 224.9399 0003036  34.4549 325.6639 15.08839440 30688,6917.882,95.438,541.847,537.6469999999998,0.0
52645.0,STARLINK-3973,PAYLOAD,2022-12-01 09:43:37,15.08841499,0.0003013999999999,53.2194,220.4791,33.0523,327.0657,6.851e-05,8.02e-06,0.0,0 STARLINK-3973,1 52645U 22052AZ  22335.40529913  .00000802  00000-0  68510-4 0  9995,2 52645  53.2194 220.4791 0003014  33.0523 327.0657 15.08841499 30830,6917.876,95.437,541.826,537.656,0.0
52645.0,STARLINK-3973,PAYLOAD,2022-12-01 19:15:56,15.08837624,0.0003023,53.2194,218.6953,33.8645,326.254,4.871e-05,4.87e-06,0.0,0 STARLINK-3973,1 52645U 22052AZ  22335.80274231  .00000487  00000-0  48710-4 0  9998,2 52645  53.2194 218.6953 0003023  33.8645 326.2540 15.08837624 30895,6917.888000000001,95.438,541.844,537.661,0.0
52645.0,STARLINK-3973,PAYLOAD,2022-12-02 01:37:29,15.08835823,0.0003047,53.2194,217.5058,34.2812,325.8376,2.7911e-05,1.56e-06,0.0,0 STARLINK-3973,1 52645U 22052AZ  22336.06770458  .00000156  00000-0  27911-4 0  9992,2 52645  53.2194 217.5058 0003047  34.2812 325.8376 15.08835823 31315,6917.893,95.438,541.866,537.65,0.0
52645.0,STARLINK-3973,PAYLOAD,2022-12-02 09:34:24,15.08842282,0.0003044,53.2196,216.0192,34.6863,325.4327,5.2808e-05,5.52e-06,0.0,0 STARLINK-3973,1 52645U 22052AZ  22336.39890014  .00000552  00000-0  52808-4 0  9992,2 52645  53.2196 216.0192 0003044  34.6863 325.4327 15.08842282 30988,6917.873000000001,95.437,541.844,537.633,0.0
